NORAD_CAT_ID,OBJECT_NAME,OBJECT_TYPE,EPOCH,MEAN_MOTION,ECCENTRICITY,INCLINATION,RA_OF_ASC_NODE,ARG_OF_PERICENTER,MEAN_ANOMALY,BSTAR,MEAN_MOTION_DOT,MEAN_MOTION_DDOT,TLE_LINE0,TLE_LINE1,TLE_LINE2,SEMIMAJOR_AXIS,PERIOD,APOGEE,PERIGEE,DECAYED
54810.0,STARLINK-5408,PAYLOAD,2024-03-11 04:29:59,15.08837666,0.0001681,53.2184,54.2679,105.1873,254.9305,1.1534e-05,-1.04e-06,0.0,0 STARLINK-5408,1 54810U 22175BE  24071.18749430 -.00000104  00000-0  11534-4 0  9999,2 54810  53.2184  54.2679 0001681 105.1873 254.9305 15.08837666 68065,6917.888,95.438,540.915,538.59,0.0
54810.0,STARLINK-5408,PAYLOAD,2024-03-11 06:05:22,15.08836596,0.0001672,53.218,53.9699,105.2011,254.9166,-8.3431e-06,-4.21e-06,0.0,0 STARLINK-5408,1 54810U 22175BE  24071.25373469 -.00000421  00000-0 -83431-5 0  9991,2 54810  53.2180  53.9699 0001672 105.2011 254.9166 15.08836596 70232,6917.891,95.438,540.912,538.599,0.0
54810.0,STARLINK-5408,PAYLOAD,2024-03-12 07:31:32,15.08846505,0.0001578,53.218,49.2114,98.6641,261.453,0.00015728,2.216e-05,0.0,0 STARLINK-5408,1 54810U 22175BE  24072.31357145  .00002216  00000-0  15728-3 0  9996,2 54810  53.2180  49.2114 0001578  98.6641 261.4530 15.08846505 68237,6917.861,95.437,540.817,538.634,0.0
54810.0,STARLINK-5408,PAYLOAD,2024-03-12 15:28:28,15.08841677,0.0001588,53.2181,47.7207,85.5548,274.5625,8.8334e-05,1.118e-05,0.0,0 STARLINK-5408,1 54810U 22175BE  24072.64477360  .00001118  00000-0  88334-4 0  9998,2 54810  53.2181  47.7207 0001588  85.5548 274.5625 15.08841677 70447,6917.875,95.437,540.839,538.642,0.0
54810.0,STARLINK-5408,PAYLOAD,2024-03-13 04:11:33,15.08838514,0.000135,53.2164,45.3442,90.854,269.2607,6.8867e-05,8.08e-06,0.0,0 STARLINK-5408,1 54810U 22175BE  24073.17469609  .00000808  00000-0  68867-4 0  9998,2 54810  53.2164  45.3442 0001350  90.8540 269.2607 15.08838514 68366,6917.885,95.438,540.684,538.816,0.0
54810.0,STARLINK-5408,PAYLOAD,2024-03-13 07:22:19,15.08844277,0.0001365,53.217,44.7481,86.7481,273.3668,0.00011267,1.506e-05,0.0,0 STARLINK-5408,1 54810U 22175BE  24073.30717289  .00001506  00000-0  11267-3 0  9990,2 54810  53.2170  44.7481 0001365  86.7481 273.3668 15.08844277 70542,6917.867,95.437,540.677,538.788,0.0
54810.0,STARLINK-5408,PAYLOAD,2024-03-13 15:19:15,15.08836976,0.0001271,53.2167,43.2586,86.9985,273.1153,4.1252e-06,-2.22e-06,0.0,0 STARLINK-5408,1 54810U 22175BE  24073.63837605 -.00000222  00000-0  41252-5 0  9995,2 54810  53.2167  43.2586 0001271  86.9985 273.1153 15.08836976 70594,6917.89,95.438,540.634,538.875,0.0
54810.0,STARLINK-5408,PAYLOAD,2024-03-14 04:02:20,15.08845399,0.0001446,53.2182,40.8795,93.9273,266.1885,6.3841e-05,7.28e-06,0.0,0 STARLINK-5408,1 54810U 22175BE  24074.16829529  .00000728  00000-0  63841-4 0  9997,2 54810  53.2182  40.8795 0001446  93.9273 266.1885 15.08845399 70670,6917.864,95.437,540.729,538.729,0.0
54810.0,STARLINK-5408,PAYLOAD,2024-03-14 07:13:06,15.08848192,0.0001534,53.2186,40.2843,95.3535,264.7632,8.8432e-05,1.12e-05,0.0,0 STARLINK-5408,1 54810U 22175BE  24074.30077299  .00001120  00000-0  88432-4 0  9992,2 54810  53.2186  40.2843 0001534  95.3535 264.7632 15.08848192 68537,6917.855,95.437,540.782,538.659,0.0
54810.0,STARLINK-5408,PAYLOAD,2024-03-15 03:53:07,15.0884328,0.0001565,53.2175,36.4181,102.5385,257.5782,0.00016259,2.301e-05,0.0,0 STARLINK-5408,1 54810U 22175BE  24075.16189587  .00002301  00000-0  16259-3 0  9990,2 54810  53.2175  36.4181 0001565 102.5385 257.5782 15.08843280 68668,6917.87,95.437,540.818,538.653,0.0
54810.0,STARLINK-5408,PAYLOAD,2024-03-15 21:22:22,15.08840025,0.0001506,53.2171,33.15,88.7565,271.36,0.00011053,1.472e-05,0.0,0 STARLINK-5408,1 54810U 22175BE  24075.89053878  .00001472  00000-0  11053-3 0  9998,2 54810  53.2171  33.1500 0001506  88.7565 271.3600 15.08840025 70933,6917.88,95.438,540.787,538.703,0.0
54810.0,STARLINK-5408,PAYLOAD,2024-03-16 03:43:54,15.08841606,0.0001585,53.2185,31.9634,100.1801,259.937,3.7075e-05,3.02e-06,0.0,0 STARLINK-5408,1 54810U 22175BE  24076.15549749  .00000302  00000-0  37075-4 0  9999,2 54810  53.2185  31.9634 0001585 100.1801 259.9370 15.08841606 68817,6917.875,95.437,540.837,538.644,0.0
54810.0,STARLINK-5408,PAYLOAD,2024-03-16 21:13:09,15.08839444,0.0001664,53.2195,28.6941,110.2139,249.9032,5.645e-05,6.1e-06,0.0,0 STARLINK-5408,1 54810U 22175BE  24076.88413965  .00000610  00000-0  56450-4 0  9999,2 54810  53.2195  28.6941 0001664 110.2139 249.9032 15.08839444 71080,6917.882,95.438,540.898,538.596,0.0
54810.0,STARLINK-5408,PAYLOAD,2024-03-17 03:34:42,15.0884236,0.000162,53.2196,27.5058,105.1902,254.9269,6.9988e-05,8.26e-06,0.0,0 STARLINK-5408,1 54810U 22175BE  24077.14909727  .00000826  00000-0  69988-4 0  9994,2 54810  53.2196  27.5058 0001620 105.1902 254.9269 15.08842360 71125,6917.873,95.437,540.859,538.617,0.0
54810.0,STARLINK-5408,PAYLOAD,2024-03-17 19:28:33,15.08840043,0.0001571,53.2199,24.5331,98.1671,261.9499,0.00010342,1.358e-05,0.0,0 STARLINK-5408,1 54810U 22175BE  24077.81149785  .00001358  00000-0  10342-3 0  9998,2 54810  53.2199  24.5331 0001571  98.1671 261.9499 15.08840043 69067,6917.88,95.438,540.832,538.658,0.0
54810.0,STARLINK-5408,PAYLOAD,2024-03-18 01:50:06,15.08837198,0.0001536,53.2197,23.341,102.9091,257.2072,5.8184e-05,6.38e-06,0.0,0 STARLINK-5408,1 54810U 22175BE  24078.07646126  .00000638  00000-0  58184-4 0  9995,2 54810  53.2197  23.3410 0001536 102.9091 257.2072 15.08837198 71268,6917.889,95.438,540.817,538.691,0.0
54810.0,STARLINK-5408,PAYLOAD,2024-03-18 20:54:44,15.08838409,0.0001487,53.2197,19.7724,99.4,260.7161,2.986e-05,1.87e-06,0.0,0 STARLINK-5408,1 54810U 22175BE  24078.87134339  .00000187  00000-0  29860-4 0  9999,2 54810  53.2197  19.7724 0001487  99.4000 260.7161 15.08838409 69227,6917.885,95.438,540.779,538.722,0.0
54810.0,STARLINK-5408,PAYLOAD,2024-03-19 04:51:39,15.08846101,0.0001453,53.219,18.2853,85.5876,274.5282,9.05e-05,1.153e-05,0.0,0 STARLINK-5408,1 54810U 22175BE  24079.20253793  .00001153  00000-0  90500-4 0  9996,2 54810  53.2190  18.2853 0001453  85.5876 274.5282 15.08846101 69277,6917.862,95.437,540.732,538.722,0.0
54810.0,STARLINK-5408,PAYLOAD,2024-03-20 01:31:41,15.08833535,0.000161,53.2191,14.4211,114.4289,245.6872,8.8188e-05,1.116e-05,0.0,0 STARLINK-5408,1 54810U 22175BE  24080.06367850  .00001116  00000-0  88188-4 0  9990,2 54810  53.2191  14.4211 0001610 114.4289 245.6872 15.08833535 69405,6917.9,95.438,540.879,538.651,0.0
54810.0,STARLINK-5408,PAYLOAD,2024-03-20 03:07:04,15.08838396,0.0001441,53.2193,14.1238,87.7683,272.3475,0.00013956,1.934e-05,0.0,0 STARLINK-5408,1 54810U 22175BE  24080.12991676  .00001934  00000-0  13956-3 0  9994,2 54810  53.2193  14.1238 0001441  87.7683 272.3475 15.08838396 71572,6917.885,95.438,540.747,538.753,0.0
54810.0,STARLINK-5408,PAYLOAD,2024-03-21 02:57:50,15.08872412,0.0001451,53.2182,9.6599,87.1618,272.954,0.00058721,9.078e-05,0.0,0 STARLINK-5408,1 54810U 22175BE  24081.12349585  .00009078  00000-0  58721-3 0  9997,2 54810  53.2182   9.6599 0001451  87.1618 272.9540 15.08872412 69564,6917.781,95.436,540.65,538.643,0.0
54810.0,STARLINK-5408,PAYLOAD,2024-03-21 12:30:09,15.08856856,0.0001444,53.2187,7.8755,100.3144,259.8011,0.00027295,4.061e-05,0.0,0 STARLINK-5408,1 54810U 22175BE  24081.52093852  .00004061  00000-0  27295-3 0  9993,2 54810  53.2187   7.8755 0001444 100.3144 259.8011 15.08856856 69625,6917.829,95.436,540.693,538.695,0.0
54810.0,STARLINK-5408,PAYLOAD,2024-03-22 01:13:14,15.08857757,0.0001664,53.2188,5.4965,98.6533,261.4647,9.9765e-05,1.301e-05,0.0,0 STARLINK-5408,1 54810U 22175BE  24082.05086113  .00001301  00000-0  99765-4 0  9990,2 54810  53.2188   5.4965 0001664  98.6533 261.4647 15.08857757 69702,6917.826,95.436,540.842,538.54,0.0
54810.0,STARLINK-5408,PAYLOAD,2024-03-22 21:53:14,15.08852086,0.0001497,53.2182,1.6313,115.5221,244.5926,-0.0002484,-4.24e-05,0.0,0 STARLINK-5408,1 54810U 22175BE  24082.91197540 -.00004240  00000-0 -24840-3 0  9990,2 54810  53.2182   1.6313 0001497 115.5221 244.5926 15.08852086 71994,6917.843,95.437,540.744,538.673,0.0
54810.0,STARLINK-5408,PAYLOAD,2024-03-23 04:14:47,15.08849539,0.0001424,53.218,0.4405,115.3187,244.7952,-0.00020863,-3.608e-05,0.0,0 STARLINK-5408,1 54810U 22175BE  24083.17693598 -.00003608  00000-0 -20863-3 0  9991,2 54810  53.2180   0.4405 0001424 115.3187 244.7952 15.08849539 69874,6917.851,95.437,540.701,538.731,0.0
54810.0,STARLINK-5408,PAYLOAD,2024-03-23 18:33:16,15.08833385,0.0001645,53.2182,357.7613,113.5439,246.5726,-9.7464e-05,-1.839e-05,0.0,0 STARLINK-5408,1 54810U 22175BE  24083.77310691 -.00001839  00000-0 -97464-4 0  9993,2 54810  53.2182 357.7613 0001645 113.5439 246.5726 15.08833385 69961,6917.901,95.438,540.904,538.628,0.0
54810.0,STARLINK-5408,PAYLOAD,2024-03-23 21:44:02,15.0884568,0.0001627,53.2194,357.1713,107.2957,252.8213,0.00014868,2.079e-05,0.0,0 STARLINK-5408,1 54810U 22175BE  24083.90558130  .00002079  00000-0  14868-3 0  9991,2 54810  53.2194 357.1713 0001627 107.2957 252.8213 15.08845680 72140,6917.863,95.437,540.854,538.602,0.0
54810.0,STARLINK-5408,PAYLOAD,2024-03-24 04:05:34,15.08856441,0.000161,53.219,355.9758,90.4063,269.7113,0.00019974,2.894e-05,0.0,0 STARLINK-5408,1 54810U 22175BE  24084.17053497  .00002894  00000-0  19974-3 0  9995,2 54810  53.2190 355.9758 0001610  90.4063 269.7113 15.08856441 70022,6917.83,95.437,540.809,538.581,0.0
54810.0,STARLINK-5408,PAYLOAD,2024-03-24 21:34:50,15.08835708,0.0002038,53.2181,352.7054,115.1892,244.9312,0.0002133,3.108e-05,0.0,0 STARLINK-5408,1 54810U 22175BE  24084.89919366  .00003108  00000-0  21330-3 0  9998,2 54810  53.2181 352.7054 0002038 115.1892 244.9312 15.08835708 70137,6917.894,95.438,541.168,538.349,0.0
54810.0,STARLINK-5408,PAYLOAD,2024-03-24 23:10:13,15.08837487,0.0002011,53.2184,352.408,113.5767,246.5437,0.00024331,3.586e-05,0.0,0 STARLINK-5408,1 54810U 22175BE  24084.96543360  .00003586  00000-0  24331-3 0  9997,2 54810  53.2184 352.4080 0002011 113.5767 246.5437 15.08837487 72303,6917.888,95.438,541.144,538.362,0.0
